{"type": "FeatureCollection", "features": [ {"type": "Feature", "properties": {"norad_id": 39574, "name": "GPM-CORE", "group": "resource", "lat": 2.6149132506628896, "lon": -112.31159687963729, "alt_km": 433.2725057314392, "timestamp": "2025-12-02T15:49:06.839875+00:00", "meta": {"OBJECT_NAME": "GPM-CORE", "OBJECT_ID": "2014-009C", "EPOCH": "2025-12-02T06:29:08.948544", "MEAN_MOTION": 15.45126239, "ECCENTRICITY": 0.0010576, "INCLINATION": 64.9753, "RA_OF_ASC_NODE": 247.7685, "ARG_OF_PERICENTER": 268.4607, "MEAN_ANOMALY": 91.5322, "EPHEMERIS_TYPE": 0, "CLASSIFICATION_TYPE": "U", "NORAD_CAT_ID": 39574, "ELEMENT_SET_NO": 999, "REV_AT_EPOCH": 66739, "BSTAR": 0.00039048629, "MEAN_MOTION_DOT": 0.00018427, "MEAN_MOTION_DDOT": 0}, "tle": {"line1": "1 39574U 14009C   25336.27024246  .00018427  00000+0  39049-3 0  9997", "line2": "2 39574  64.9753 247.7685 0010576 268.4607  91.5322 15.45126239667396"}}, "geometry": {"type": "Point", "coordinates": [-112.31159687963729, 2.6149132506628896]}}, {"type": "Feature", "properties": {"norad_id": 39634, "name": "SENTINEL-1A", "group": "resource", "lat": 58.38475219139655, "lon": 175.5634320062696, "alt_km": 689.3654849795648, "timestamp": "2025-12-02T15:49:06.839886+00:00", "meta": {"OBJECT_NAME": "SENTINEL-1A", "OBJECT_ID": "2014-016A", "EPOCH": "2025-12-02T07:02:21.831072", "MEAN_MOTION": 14.5920074, "ECCENTRICITY": 0.00012593, "INCLINATION": 98.1805, "RA_OF_ASC_NODE": 341.6889, "ARG_OF_PERICENTER": 88.991, "MEAN_ANOMALY": 271.1433, "EPHEMERIS_TYPE": 0, "CLASSIFICATION_TYPE": "U", "NORAD_CAT_ID": 39634, "ELEMENT_SET_NO": 999, "REV_AT_EPOCH": 62130, "BSTAR": 7.5406922e-05, "MEAN_MOTION_DOT": 3.1e-06, "MEAN_MOTION_DDOT": 0}, "tle": {"line1": "1 39634U 14016A   25336.29330823  .00000310  00000+0  75407-4 0  9996", "line2": "2 39634  98.1805 341.6889 0001259  88.9910 271.1433 14.59200740621304"}}, "geometry": {"type": "Point", "coordinates": [175.5634320062696, 58.38475219139655]}}, {"type": "Feature", "properties": {"norad_id": 39731, "name": "KAZEOSAT 1", "group": "resource", "lat": -3.886000094913503, "lon": 49.36346017250945, "alt_km": 755.3199246632557, "timestamp": "2025-12-02T15:49:06.839896+00:00", "meta": {"OBJECT_NAME": "KAZEOSAT 1", "OBJECT_ID": "2014-024A", "EPOCH": "2025-12-02T07:30:37.516608", "MEAN_MOTION": 14.42052352, "ECCENTRICITY": 0.00010493, "INCLINATION": 98.3446, "RA_OF_ASC_NODE": 48.4538, "ARG_OF_PERICENTER": 98.5054, "MEAN_ANOMALY": 261.6255, "EPHEMERIS_TYPE": 0, "CLASSIFICATION_TYPE": "U", "NORAD_CAT_ID": 39731, "ELEMENT_SET_NO": 999, "REV_AT_EPOCH": 61018, "BSTAR": 0.00010160348, "MEAN_MOTION_DOT": 2.91e-06, "MEAN_MOTION_DDOT": 0}, "tle": {"line1": "1 39731U 14024A   25336.31293422  .00000291  00000+0  10160-3 0  9991", "line2": "2 39731  98.3446  48.4538 0001049  98.5054 261.6255 14.42052352610187"}}, "geometry": {"type": "Point", "coordinates": [49.36346017250945, -3.886000094913503]}}, {"type": "Feature", "properties": {"norad_id": 39766, "name": "ALOS-2", "group": "resource", "lat": -34.4133310094397, "lon": 77.12369833807377, "alt_km": 637.7646068376916, "timestamp": "2025-12-02T15:49:06.839906+00:00", "meta": {"OBJECT_NAME": "ALOS-2", "OBJECT_ID": "2014-029A", "EPOCH": "2025-12-02T06:14:11.929920", "MEAN_MOTION": 14.79508329, "ECCENTRICITY": 0.00013811, "INCLINATION": 97.9234, "RA_OF_ASC_NODE": 71.2553, "ARG_OF_PERICENTER": 98.5491, "MEAN_ANOMALY": 261.5877, "EPHEMERIS_TYPE": 0, "CLASSIFICATION_TYPE": "U", "NORAD_CAT_ID": 39766, "ELEMENT_SET_NO": 999, "REV_AT_EPOCH": 62246, "BSTAR": 0.00035770461, "MEAN_MOTION_DOT": 2.623e-05, "MEAN_MOTION_DDOT": 0}, "tle": {"line1": "1 39766U 14029A   25336.25986030  .00002623  00000+0  35770-3 0  9996", "line2": "2 39766  97.9234  71.2553 0001381  98.5491 261.5877 14.79508329622463"}}, "geometry": {"type": "Point", "coordinates": [77.12369833807377, -34.4133310094397]}}, {"type": "Feature", "properties": {"norad_id": 40010, "name": "KAZEOSAT 2", "group": "resource", "lat": 28.980970863266023, "lon": 177.28012602165873, "alt_km": 615.9240570805687, "timestamp": "2025-12-02T15:49:06.839916+00:00", "meta": {"OBJECT_NAME": "KAZEOSAT 2", "OBJECT_ID": "2014-033A", "EPOCH": "2025-12-02T07:36:07.487712", "MEAN_MOTION": 14.85140156, "ECCENTRICITY": 0.00072067, "INCLINATION": 97.5512, "RA_OF_ASC_NODE": 181.169, "ARG_OF_PERICENTER": 245.92, "MEAN_ANOMALY": 114.1262, "EPHEMERIS_TYPE": 0, "CLASSIFICATION_TYPE": "U", "NORAD_CAT_ID": 40010, "ELEMENT_SET_NO": 999, "REV_AT_EPOCH": 61973, "BSTAR": 0.00013083889, "MEAN_MOTION_DOT": 1.07e-05, "MEAN_MOTION_DDOT": 0}, "tle": {"line1": "1 40010U 14033A   25336.31675333  .00001070  00000+0  13084-3 0  9992", "line2": "2 40010  97.5512 181.1690 0007206 245.9200 114.1262 14.85140156619737"}}, "geometry": {"type": "Point", "coordinates": [177.28012602165873, 28.980970863266023]}}, {"type": "Feature", "properties": {"norad_id": 40011, "name": "HODOYOSHI-4", "group": "resource", "lat": 33.49749424540493, "lon": 161.0094036768073, "alt_km": 618.6463357777375, "timestamp": "2025-12-02T15:49:06.839926+00:00", "meta": {"OBJECT_NAME": "HODOYOSHI-4", "OBJECT_ID": "2014-033B", "EPOCH": "2025-12-02T07:35:37.561344", "MEAN_MOTION": 14.87418861, "ECCENTRICITY": 0.00226019, "INCLINATION": 97.5417, "RA_OF_ASC_NODE": 165.7139, "ARG_OF_PERICENTER": 236.479, "MEAN_ANOMALY": 123.4268, "EPHEMERIS_TYPE": 0, "CLASSIFICATION_TYPE": "U", "NORAD_CAT_ID": 40011, "ELEMENT_SET_NO": 999, "REV_AT_EPOCH": 61953, "BSTAR": 0.00024868719, "MEAN_MOTION_DOT": 2.208e-05, "MEAN_MOTION_DDOT": 0}, "tle": {"line1": "1 40011U 14033B   25336.31640696  .00002208  00000+0  24869-3 0  9994", "line2": "2 40011  97.5417 165.7139 0022601 236.4790 123.4268 14.87418861619533"}}, "geometry": {"type": "Point", "coordinates": [161.0094036768073, 33.49749424540493]}}, {"type": "Feature", "properties": {"norad_id": 40013, "name": "DEIMOS-2", "group": "resource", "lat": -7.836339997649911, "lon": -146.15499030098985, "alt_km": 592.8960709597286, "timestamp": "2025-12-02T15:49:06.839937+00:00", "meta": {"OBJECT_NAME": "DEIMOS-2", "OBJECT_ID": "2014-033D", "EPOCH": "2025-12-02T06:12:07.975296", "MEAN_MOTION": 14.92894046, "ECCENTRICITY": 7.433e-05, "INCLINATION": 97.6073, "RA_OF_ASC_NODE": 212.4037, "ARG_OF_PERICENTER": 81.056, "MEAN_ANOMALY": 279.0744, "EPHEMERIS_TYPE": 0, "CLASSIFICATION_TYPE": "U", "NORAD_CAT_ID": 40013, "ELEMENT_SET_NO": 999, "REV_AT_EPOCH": 60833, "BSTAR": 0.00029573263, "MEAN_MOTION_DOT": 3.011e-05, "MEAN_MOTION_DDOT": 0}, "tle": {"line1": "1 40013U 14033D   25336.25842564  .00003011  00000+0  29573-3 0  9997", "line2": "2 40013  97.6073 212.4037 0000743  81.0560 279.0744 14.92894046608335"}}, "geometry": {"type": "Point", "coordinates": [-146.15499030098985, -7.836339997649911]}}, {"type": "Feature", "properties": {"norad_id": 40015, "name": "HODOYOSHI-3", "group": "resource", "lat": 55.48064128736068, "lon": 131.70939616635235, "alt_km": 624.4896639459766, "timestamp": "2025-12-02T15:49:06.839947+00:00", "meta": {"OBJECT_NAME": "HODOYOSHI-3", "OBJECT_ID": "2014-033F", "EPOCH": "2025-12-02T04:14:37.550400", "MEAN_MOTION": 14.84746309, "ECCENTRICITY": 0.00318639, "INCLINATION": 97.6193, "RA_OF_ASC_NODE": 142.4714, "ARG_OF_PERICENTER": 284.1163, "MEAN_ANOMALY": 75.6512, "EPHEMERIS_TYPE": 0, "CLASSIFICATION_TYPE": "U", "NORAD_CAT_ID": 40015, "ELEMENT_SET_NO": 999, "REV_AT_EPOCH": 61838, "BSTAR": 0.00027126378, "MEAN_MOTION_DOT": 2.267e-05, "MEAN_MOTION_DDOT": 0}, "tle": {"line1": "1 40015U 14033F   25336.17682350  .00002267  00000+0  27126-3 0  9999", "line2": "2 40015  97.6193 142.4714 0031863 284.1163  75.6512 14.84746309618384"}}, "geometry": {"type": "Point", "coordinates": [131.70939616635235, 55.48064128736068]}}, {"type": "Feature", "properties": {"norad_id": 40053, "name": "SPOT 7", "group": "resource", "lat": -68.43218880677752, "lon": 60.06226284486482, "alt_km": 699.1698808851752, "timestamp": "2025-12-02T15:49:06.839957+00:00", "meta": {"OBJECT_NAME": "SPOT 7", "OBJECT_ID": "2014-034A", "EPOCH": "2025-12-02T06:16:27.469056", "MEAN_MOTION": 14.60711871, "ECCENTRICITY": 0.00015089, "INCLINATION": 98.092, "RA_OF_ASC_NODE": 38.5778, "ARG_OF_PERICENTER": 97.5639, "MEAN_ANOMALY": 262.5734, "EPHEMERIS_TYPE": 0, "CLASSIFICATION_TYPE": "U", "NORAD_CAT_ID": 40053, "ELEMENT_SET_NO": 999, "REV_AT_EPOCH": 60838, "BSTAR": 0.00017768226, "MEAN_MOTION_DOT": 8.2e-06, "MEAN_MOTION_DDOT": 0}, "tle": {"line1": "1 40053U 14034A   25336.26142904  .00000820  00000+0  17768-3 0  9992", "line2": "2 40053  98.0920  38.5778 0001508  97.5639 262.5734 14.60711871608383"}}, "geometry": {"type": "Point", "coordinates": [60.06226284486482, -68.43218880677752]}}, {"type": "Feature", "properties": {"norad_id": 40072, "name": "SKYSAT-B", "group": "resource", "lat": -18.05909012580175, "lon": -77.41795900286552, "alt_km": 614.9948465545758, "timestamp": "2025-12-02T15:49:06.839967+00:00", "meta": {"OBJECT_NAME": "SKYSAT-B", "OBJECT_ID": "2014-037D", "EPOCH": "2025-12-02T01:22:06.332736", "MEAN_MOTION": 14.87260688, "ECCENTRICITY": 0.00052784, "INCLINATION": 98.359, "RA_OF_ASC_NODE": 279.2005, "ARG_OF_PERICENTER": 183.5054, "MEAN_ANOMALY": 176.6124, "EPHEMERIS_TYPE": 0, "CLASSIFICATION_TYPE": "U", "NORAD_CAT_ID": 40072, "ELEMENT_SET_NO": 999, "REV_AT_EPOCH": 61665, "BSTAR": 0.00029035205, "MEAN_MOTION_DOT": 2.557e-05, "MEAN_MOTION_DDOT": 0}, "tle": {"line1": "1 40072U 14037D   25336.05701774  .00002557  00000+0  29035-3 0  9998", "line2": "2 40072  98.3590 279.2005 0005278 183.5054 176.6124 14.87260688616653"}}, "geometry": {"type": "Point", "coordinates": [-77.41795900286552, -18.05909012580175]}}]}